[{"OBJECT_NAME":"GEESAT-2 09","OBJECT_ID":"2024-023J","EPOCH":"2026-03-09T21:37:55.305984","MEAN_MOTION":14.82902354,"ECCENTRICITY":0.00224852,"INCLINATION":50.0021,"RA_OF_ASC_NODE":93.8304,"ARG_OF_PERICENTER":345.4552,"MEAN_ANOMALY":14.5736,"EPHEMERIS_TYPE":0,"CLASSIFICATION_TYPE":"U","NORAD_CAT_ID":58913,"ELEMENT_SET_NO":999,"REV_AT_EPOCH":11418,"BSTAR":0.00034180683,"MEAN_MOTION_DOT":2.583e-5,"MEAN_MOTION_DDOT":0},{"OBJECT_NAME":"SL-14 R\/B","OBJECT_ID":"1985-058B","EPOCH":"2026-03-09T17:05:08.172096","MEAN_MOTION":14.85781539,"ECCENTRICITY":0.00210646,"INCLINATION":82.5282,"RA_OF_ASC_NODE":154.9342,"ARG_OF_PERICENTER":138.8618,"MEAN_ANOMALY":221.4192,"EPHEMERIS_TYPE":0,"CLASSIFICATION_TYPE":"U","NORAD_CAT_ID":15890,"ELEMENT_SET_NO":999,"REV_AT_EPOCH":17646,"BSTAR":7.1757705e-5,"MEAN_MOTION_DOT":6.5e-6,"MEAN_MOTION_DDOT":0}]
